{
  "type": "FeatureCollection",
  "features": [
    {
      "type": "Feature",
      "properties": {
        "era": 1,
        "name": "Gujarat Sultanate (1407–1572)",
        "dynasties": "Muzaffarid / Rajput chiefs"
      },
      "geometry": {
        "type": "Polygon",
        "coordinates": [[
          [67.90, 23.20],
          [67.70, 24.10],
          [68.30, 24.70],
          [69.20, 25.10],
          [70.40, 25.30],
          [71.80, 25.20],
          [73.20, 25.00],
          [74.60, 24.80],
          [75.60, 24.20],
          [76.10, 23.10],
          [75.70, 22.00],
          [74.70, 21.00],
          [73.60, 20.20],
          [72.50, 19.80],
          [71.60, 20.40],
          [70.60, 21.10],
          [69.70, 21.70],
          [69.00, 22.20],
          [68.30, 22.60],
          [68.00, 23.00],
          [67.90, 23.20]
        ]]
      }
    }
  ]
}
