{
  "type": "FeatureCollection",
  "features": [
    {
      "type": "Feature",
      "properties": {
        "era": 2,
        "name": "Mughal Gujarat — Subah of Gujarat (1572–1758)",
        "dynasties": "Mughal Empire · governors (subahdars)"
      },
      "geometry": {
        "type": "Polygon",
        "coordinates": [[
          [68.10, 23.30],
          [67.90, 24.20],
          [68.60, 24.80],
          [69.50, 25.20],
          [70.80, 25.40],
          [72.00, 25.30],
          [73.50, 25.10],
          [75.00, 24.70],
          [75.80, 23.80],
          [76.20, 22.80],
          [75.90, 21.70],
          [74.90, 20.80],
          [73.70, 20.00],
          [72.55, 19.70],
          [71.60, 20.30],
          [70.60, 21.00],
          [69.80, 21.60],
          [69.10, 22.10],
          [68.50, 22.55],
          [68.20, 22.90],
          [68.10, 23.30]
        ]]
      }
    }
  ]
}
