{
  "type": "FeatureCollection",
  "features": [
    {
      "type": "Feature",
      "properties": {
        "era": 4,
        "name": "Modern Gujarat (1960–present)",
        "capital": "Gandhinagar"
      },
      "geometry": {
        "type": "Polygon",
        "coordinates": [[
          [68.18, 23.62],
          [68.15, 24.10],
          [68.98, 24.22],
          [69.80, 24.58],
          [70.42, 24.87],
          [71.05, 24.70],
          [71.92, 24.54],
          [73.12, 24.35],
          [74.07, 23.92],
          [74.39, 23.48],
          [74.36, 22.98],
          [73.95, 22.28],
          [73.48, 21.76],
          [73.18, 21.15],
          [73.00, 20.82],
          [72.88, 20.46],
          [72.55, 20.10],
          [71.90, 20.58],
          [71.48, 21.08],
          [71.05, 21.50],
          [70.45, 22.10],
          [70.03, 22.54],
          [69.50, 22.30],
          [68.98, 22.35],
          [68.55, 22.76],
          [68.30, 22.94],
          [68.18, 23.62]
        ]]
      }
    }
  ]
}
