{
  "type": "FeatureCollection",
  "features": [
    {
      "type": "Feature",
      "properties": {
        "era": 0,
        "name": "Early Gujarat Kingdoms (600–1400)",
        "dynasties": "Maitraka · Gurjara-Pratihara · Solanki"
      },
      "geometry": {
        "type": "Polygon",
        "coordinates": [[
          [68.60, 23.50],
          [68.55, 24.00],
          [69.20, 24.25],
          [70.10, 24.55],
          [71.00, 24.65],
          [72.20, 24.55],
          [73.40, 24.30],
          [74.10, 23.85],
          [74.30, 23.20],
          [74.15, 22.50],
          [73.80, 21.80],
          [73.35, 21.15],
          [73.05, 20.70],
          [72.70, 20.30],
          [72.40, 20.10],
          [71.85, 20.60],
          [71.25, 21.15],
          [70.65, 21.60],
          [70.10, 22.10],
          [69.40, 22.45],
          [68.85, 22.75],
          [68.55, 23.05],
          [68.60, 23.50]
        ]]
      }
    }
  ]
}
