{
  "type": "FeatureCollection",
  "features": [
    {
      "type": "Feature",
      "properties": {
        "era": 3,
        "name": "British Bombay Presidency & Princely States (1758–1947)",
        "note": "Simplified composite — many princely states existed within this region"
      },
      "geometry": {
        "type": "Polygon",
        "coordinates": [[
          [68.20, 23.55],
          [68.15, 24.05],
          [68.90, 24.25],
          [69.80, 24.60],
          [70.50, 24.85],
          [72.00, 24.55],
          [73.20, 24.38],
          [74.10, 23.95],
          [74.40, 23.45],
          [74.38, 22.95],
          [74.00, 22.25],
          [73.50, 21.65],
          [73.15, 21.10],
          [72.90, 20.55],
          [72.55, 20.10],
          [71.90, 20.55],
          [71.40, 21.10],
          [70.85, 21.55],
          [70.20, 22.10],
          [69.50, 22.40],
          [68.95, 22.65],
          [68.55, 22.90],
          [68.30, 23.20],
          [68.20, 23.55]
        ]]
      }
    }
  ]
}
